{
  "norad_id": 56497,
  "name": "STARLINK-5527",
  "history": [
    {
      "epoch": "2026-03-28T21:40:46.677792Z",
      "apogee_km": 574.1668665120023,
      "perigee_km": 569.9487932697411,
      "latitude_deg": -3.912033748558821e-05,
      "longitude_deg": -95.62429176695423,
      "height_km": 574.5392123832584,
      "semi_major_axis_km": 6950.194829890871,
      "eccentricity": 0.00030345,
      "inclination_deg": 70.0,
      "raan_deg": 55.8873,
      "arg_perigee_deg": 268.536,
      "mean_anomaly_deg": 91.5451,
      "mean_motion_rev_day": 14.98329373
    },
    {
      "epoch": "2026-03-29T04:05:18.875040Z",
      "apogee_km": 574.1420134959653,
      "perigee_km": 569.9552216799302,
      "latitude_deg": 9.811628928059558e-06,
      "longitude_deg": 167.30516483012153,
      "height_km": 574.5003202020484,
      "semi_major_axis_km": 6950.1856175879475,
      "eccentricity": 0.0003012,
      "inclination_deg": 70.0,
      "raan_deg": 55.2141,
      "arg_perigee_deg": 269.3368,
      "mean_anomaly_deg": 90.7446,
      "mean_motion_rev_day": 14.98332352
    },
    {
      "epoch": "2026-03-30T02:31:12.152064Z",
      "apogee_km": 574.1613760407199,
      "perigee_km": 569.9676244554694,
      "latitude_deg": 6.537045916483165e-05,
      "longitude_deg": -172.44472968343172,
      "height_km": 574.5094625347622,
      "semi_major_axis_km": 6950.201500248094,
      "eccentricity": 0.0003017,
      "inclination_deg": 70.0001,
      "raan_deg": 52.8574,
      "arg_perigee_deg": 269.5221,
      "mean_anomaly_deg": 90.5593,
      "mean_motion_rev_day": 14.98327216
    },
    {
      "epoch": "2026-03-30T05:43:28.323264Z",
      "apogee_km": 574.1644996816849,
      "perigee_km": 569.9654656518378,
      "latitude_deg": 1.2933990214073237e-05,
      "longitude_deg": 139.0197676797724,
      "height_km": 574.5016267566368,
      "semi_major_axis_km": 6950.201982666761,
      "eccentricity": 0.00030208,
      "inclination_deg": 70.0002,
      "raan_deg": 52.5209,
      "arg_perigee_deg": 269.7501,
      "mean_anomaly_deg": 90.3312,
      "mean_motion_rev_day": 14.9832706
    }
  ]
}